{
  "norad_id": 53960,
  "name": "SES-20",
  "history": [
    {
      "epoch": "2026-04-15T15:15:33.024960Z",
      "apogee_km": 35793.98708206979,
      "perigee_km": 35779.802765330656,
      "latitude_deg": -0.0087725373840395,
      "longitude_deg": -103.11705807782687,
      "height_km": 35788.07373819269,
      "semi_major_axis_km": 42165.031923700226,
      "eccentricity": 0.0001682,
      "inclination_deg": 0.0512,
      "raan_deg": 68.4543,
      "arg_perigee_deg": 5.187,
      "mean_anomaly_deg": 255.9498,
      "mean_motion_rev_day": 1.00270715
    },
    {
      "epoch": "2026-04-16T13:30:15.194304Z",
      "apogee_km": 35794.05090106571,
      "perigee_km": 35779.73165746207,
      "latitude_deg": 0.011841684352756537,
      "longitude_deg": -103.1177692897554,
      "height_km": 35790.87823620221,
      "semi_major_axis_km": 42165.02827926389,
      "eccentricity": 0.0001698,
      "inclination_deg": 0.0492,
      "raan_deg": 66.8108,
      "arg_perigee_deg": 6.6165,
      "mean_anomaly_deg": 230.7502,
      "mean_motion_rev_day": 1.00270728
    },
    {
      "epoch": "2026-04-17T20:18:16.101216Z",
      "apogee_km": 35793.64207131674,
      "perigee_km": 35780.44774259442,
      "latitude_deg": -0.01764676998278551,
      "longitude_deg": -103.10788962593847,
      "height_km": 35780.569459699975,
      "semi_major_axis_km": 42165.181906955586,
      "eccentricity": 0.00015646,
      "inclination_deg": 0.0474,
      "raan_deg": 68.4279,
      "arg_perigee_deg": 4.5016,
      "mean_anomaly_deg": 334.5196,
      "mean_motion_rev_day": 1.0027018
    },
    {
      "epoch": "2026-04-18T13:25:10.665408Z",
      "apogee_km": 35793.57959212709,
      "perigee_km": 35780.3481834685,
      "latitude_deg": 0.016143209741845292,
      "longitude_deg": -103.11645214925758,
      "height_km": 35790.507119031616,
      "semi_major_axis_km": 42165.1008877978,
      "eccentricity": 0.0001569,
      "inclination_deg": 0.0483,
      "raan_deg": 70.2132,
      "arg_perigee_deg": 2.746,
      "mean_anomaly_deg": 231.9175,
      "mean_motion_rev_day": 1.00270469
    },
    {
      "epoch": "2026-04-19T14:38:06.318240Z",
      "apogee_km": 35793.39715291997,
      "perigee_km": 35780.975248705014,
      "latitude_deg": 0.007018154852702403,
      "longitude_deg": -103.11486101891154,
      "height_km": 35788.47226137994,
      "semi_major_axis_km": 42165.32320081249,
      "eccentricity": 0.0001473,
      "inclination_deg": 0.0469,
      "raan_deg": 72.1195,
      "arg_perigee_deg": 359.0958,
      "mean_anomaly_deg": 252.9302,
      "mean_motion_rev_day": 1.00269676
    },
    {
      "epoch": "2026-04-20T13:20:03.077088Z",
      "apogee_km": 35793.33385886523,
      "perigee_km": 35780.74418060926,
      "latitude_deg": -0.009236557735001016,
      "longitude_deg": -103.11432784207295,
      "height_km": 35790.09547616475,
      "semi_major_axis_km": 42165.17601973725,
      "eccentricity": 0.00014929,
      "inclination_deg": 0.0482,
      "raan_deg": 72.9837,
      "arg_perigee_deg": 357.2761,
      "mean_anomaly_deg": 235.2999,
      "mean_motion_rev_day": 1.00270201
    },
    {
      "epoch": "2026-04-21T13:17:23.503200Z",
      "apogee_km": 35793.31593871703,
      "perigee_km": 35781.03739937661,
      "latitude_deg": -0.013882143471902423,
      "longitude_deg": -103.10960744857796,
      "height_km": 35790.03802831916,
      "semi_major_axis_km": 42165.31366904682,
      "eccentricity": 0.0001456,
      "inclination_deg": 0.0459,
      "raan_deg": 73.6139,
      "arg_perigee_deg": 355.7335,
      "mean_anomaly_deg": 236.5321,
      "mean_motion_rev_day": 1.0026971
    },
    {
      "epoch": "2026-04-22T13:14:50.735040Z",
      "apogee_km": 35793.337289624695,
      "perigee_km": 35780.805789646714,
      "latitude_deg": -0.018994097949659686,
      "longitude_deg": -103.11182446050226,
      "height_km": 35789.96808317566,
      "semi_major_axis_km": 42165.20853963571,
      "eccentricity": 0.0001486,
      "inclination_deg": 0.0473,
      "raan_deg": 73.2955,
      "arg_perigee_deg": 356.0074,
      "mean_anomaly_deg": 236.9185,
      "mean_motion_rev_day": 1.00270085
    },
    {
      "epoch": "2026-04-22T13:14:50.735904Z",
      "apogee_km": 35793.33602466843,
      "perigee_km": 35780.80705460297,
      "latitude_deg": -0.018994099053223683,
      "longitude_deg": -103.11182517920457,
      "height_km": 35789.967395904554,
      "semi_major_axis_km": 42165.20853963571,
      "eccentricity": 0.00014857,
      "inclination_deg": 0.0473,
      "raan_deg": 73.2955,
      "arg_perigee_deg": 356.0074,
      "mean_anomaly_deg": 236.9185,
      "mean_motion_rev_day": 1.00270085
    },
    {
      "epoch": "2026-04-24T13:09:46.988064Z",
      "apogee_km": 35793.70987376156,
      "perigee_km": 35780.335085174665,
      "latitude_deg": -0.0165819927752527,
      "longitude_deg": -103.11031078252002,
      "height_km": 35790.25860603692,
      "semi_major_axis_km": 42165.159479468115,
      "eccentricity": 0.0001586,
      "inclination_deg": 0.0462,
      "raan_deg": 71.4471,
      "arg_perigee_deg": 359.7229,
      "mean_anomaly_deg": 235.7514,
      "mean_motion_rev_day": 1.0027026
    },
    {
      "epoch": "2026-04-25T14:25:04.277280Z",
      "apogee_km": 35794.832970495445,
      "perigee_km": 35780.25207851587,
      "latitude_deg": 0.008418863617904695,
      "longitude_deg": -103.10298580936666,
      "height_km": 35788.81900342797,
      "semi_major_axis_km": 42165.679524505664,
      "eccentricity": 0.0001729,
      "inclination_deg": 0.0229,
      "raan_deg": 102.8821,
      "arg_perigee_deg": 328.3348,
      "mean_anomaly_deg": 255.575,
      "mean_motion_rev_day": 1.00268405
    },
    {
      "epoch": "2026-04-26T14:47:18.497184Z",
      "apogee_km": 35795.21523928518,
      "perigee_km": 35777.431956383436,
      "latitude_deg": 0.006833059315316467,
      "longitude_deg": -103.10812485758412,
      "height_km": 35786.14603026621,
      "semi_major_axis_km": 42164.46059783431,
      "eccentricity": 0.00021088,
      "inclination_deg": 0.022,
      "raan_deg": 102.5703,
      "arg_perigee_deg": 323.1691,
      "mean_anomaly_deg": 267.6136,
      "mean_motion_rev_day": 1.00272753
    },
    {
      "epoch": "2026-04-27T00:16:38.720928Z",
      "apogee_km": 35795.67418952048,
      "perigee_km": 35778.61074422583,
      "latitude_deg": -0.006627680549042631,
      "longitude_deg": -103.06825632834527,
      "height_km": 35781.50863194512,
      "semi_major_axis_km": 42165.27946687316,
      "eccentricity": 0.00020234,
      "inclination_deg": 0.0221,
      "raan_deg": 101.307,
      "arg_perigee_deg": 321.8701,
      "mean_anomaly_deg": 52.8977,
      "mean_motion_rev_day": 1.00269832
    },
    {
      "epoch": "2026-04-28T12:59:32.767008Z",
      "apogee_km": 35795.526498487634,
      "perigee_km": 35779.07354496176,
      "latitude_deg": 0.0007139088898761672,
      "longitude_deg": -103.11152335367127,
      "height_km": 35791.73829544272,
      "semi_major_axis_km": 42165.4370217247,
      "eccentricity": 0.0001951,
      "inclination_deg": 0.021,
      "raan_deg": 93.6434,
      "arg_perigee_deg": 341.9081,
      "mean_anomaly_deg": 232.7533,
      "mean_motion_rev_day": 1.0026927
    },
    {
      "epoch": "2026-04-29T10:37:54.801696Z",
      "apogee_km": 35795.21131584962,
      "perigee_km": 35776.199639276485,
      "latitude_deg": -0.0021824022744342474,
      "longitude_deg": -103.09933528488105,
      "height_km": 35793.76185764523,
      "semi_major_axis_km": 42163.842477563056,
      "eccentricity": 0.00022545,
      "inclination_deg": 0.0174,
      "raan_deg": 89.1646,
      "arg_perigee_deg": 338.9739,
      "mean_anomaly_deg": 205.6549,
      "mean_motion_rev_day": 1.00274958
    },
    {
      "epoch": "2026-04-30T12:54:24.394176Z",
      "apogee_km": 35796.12843228376,
      "perigee_km": 35778.736821435465,
      "latitude_deg": -0.003992599325195691,
      "longitude_deg": -103.12096959622092,
      "height_km": 35792.22812950127,
      "semi_major_axis_km": 42165.569626859615,
      "eccentricity": 0.00020623,
      "inclination_deg": 0.0202,
      "raan_deg": 81.4463,
      "arg_perigee_deg": 355.3809,
      "mean_anomaly_deg": 232.1571,
      "mean_motion_rev_day": 1.00268797
    },
    {
      "epoch": "2026-05-01T14:19:59.121984Z",
      "apogee_km": 35796.32628525293,
      "perigee_km": 35778.91520056572,
      "latitude_deg": -0.0060791689112539285,
      "longitude_deg": -103.12481141412503,
      "height_km": 35789.38851544957,
      "semi_major_axis_km": 42165.75774290933,
      "eccentricity": 0.00020646,
      "inclination_deg": 0.019,
      "raan_deg": 74.5747,
      "arg_perigee_deg": 2.2719,
      "mean_anomaly_deg": 254.579,
      "mean_motion_rev_day": 1.00268126
    },
    {
      "epoch": "2026-05-04T10:03:45.945792Z",
      "apogee_km": 35796.105737868755,
      "perigee_km": 35777.9072619342,
      "latitude_deg": -0.024244577721451104,
      "longitude_deg": -103.10742026043087,
      "height_km": 35795.43464321591,
      "semi_major_axis_km": 42165.143499901475,
      "eccentricity": 0.0002158,
      "inclination_deg": 0.0489,
      "raan_deg": 79.1961,
      "arg_perigee_deg": 359.718,
      "mean_anomaly_deg": 191.2402,
      "mean_motion_rev_day": 1.00270317
    },
    {
      "epoch": "2026-05-04T20:44:59.483040Z",
      "apogee_km": 35796.69153863443,
      "perigee_km": 35778.69853478772,
      "latitude_deg": 0.007583052244007532,
      "longitude_deg": -103.0991836744043,
      "height_km": 35778.22981443851,
      "semi_major_axis_km": 42165.83203671108,
      "eccentricity": 0.00021336,
      "inclination_deg": 0.0509,
      "raan_deg": 85.9801,
      "arg_perigee_deg": 337.5054,
      "mean_anomaly_deg": 7.4143,
      "mean_motion_rev_day": 1.00267861
    }
  ]
}